NORAD_CAT_ID,OBJECT_NAME,OBJECT_TYPE,EPOCH,MEAN_MOTION,ECCENTRICITY,INCLINATION,RA_OF_ASC_NODE,ARG_OF_PERICENTER,MEAN_ANOMALY,BSTAR,MEAN_MOTION_DOT,MEAN_MOTION_DDOT,TLE_LINE0,TLE_LINE1,TLE_LINE2,SEMIMAJOR_AXIS,PERIOD,APOGEE,PERIGEE,DECAYED
51959.0,STARLINK-3704,PAYLOAD,2023-01-12 19:39:33,15.08835997,0.0003568,53.2161,160.0627,34.7217,325.4007,7.2135e-05,8.59e-06,0.0,0 STARLINK-3704,1 51959U 22025D   23012.81913742  .00000859  00000-0  72135-4 0  9997,2 51959  53.2161 160.0627 0003568  34.7217 325.4007 15.08835997 48397,6917.893,95.438,542.226,537.289,0.0
51959.0,STARLINK-3704,PAYLOAD,2023-01-13 13:08:50,15.08817142,0.0002907999999999,53.2149,156.7881,51.4364,308.6888,-0.00024553,-4.192e-05,0.0,0 STARLINK-3704,1 51959U 22025D   23013.54780501 -.00004192  00000-0 -24553-3 0  9999,2 51959  53.2149 156.7881 0002908  51.4364 308.6888 15.08817142 48508,6917.95,95.439,541.827,537.804,0.0
51959.0,STARLINK-3704,PAYLOAD,2023-01-13 16:19:36,15.08820986,0.0003393,53.2163,156.1964,34.8741,325.2473,-0.00011095,-2.053e-05,0.0,0 STARLINK-3704,1 51959U 22025D   23013.68028334 -.00002053  00000-0 -11095-3 0  9994,2 51959  53.2163 156.1964 0003393  34.8741 325.2473 15.08820986 47439,6917.939,95.439,542.151,537.456,0.0
51959.0,STARLINK-3704,PAYLOAD,2023-01-14 01:51:55,15.08827038,0.0003416,53.2154,154.4127,38.4292,321.6943,-4.0863000000000005e-05,-9.39e-06,0.0,0 STARLINK-3704,1 51959U 22025D   23014.07772182 -.00000939  00000-0 -40863-4 0  9992,2 51959  53.2154 154.4127 0003416  38.4292 321.6943 15.08827038 48582,6917.92,95.438,542.148,537.422,0.0
51959.0,STARLINK-3704,PAYLOAD,2023-01-14 16:10:22,15.08834378,0.0003703999999999,53.2168,151.7365,42.1096,318.0181,0.00032947,4.958e-05,0.0,0 STARLINK-3704,1 51959U 22025D   23014.67386728  .00004958  00000-0  32947-3 0  9991,2 51959  53.2168 151.7365 0003704  42.1096 318.0181 15.08834378 48674,6917.898,95.438,542.325,537.2,0.0
51959.0,STARLINK-3704,PAYLOAD,2023-01-15 12:50:25,15.08823068,0.0003481999999999,53.2157,147.8712,43.1633,316.9632,0.00013152,1.804e-05,0.0,0 STARLINK-3704,1 51959U 22025D   23015.53501196  .00001804  00000-0  13152-3 0  9999,2 51959  53.2157 147.8712 0003482  43.1633 316.9632 15.08823068 48802,6917.932,95.439,542.206,537.388,0.0
51959.0,STARLINK-3704,PAYLOAD,2023-01-15 14:25:48,15.08785913,0.0003556,53.2176,147.57299999999998,43.0354,317.0916,0.0006162,9.518e-05,0.0,0 STARLINK-3704,1 51959U 22025D   23015.60125860  .00009518  00000-0  61620-3 0  9990,2 51959  53.2176 147.5730 0003556  43.0354 317.0916 15.08785913 47724,6918.045999999999,95.441,542.371,537.451,0.0
51959.0,STARLINK-3704,PAYLOAD,2023-01-15 19:11:56,15.08842939,0.0002898999999999,53.216,146.6815,40.8052,319.3157,0.00028897,4.314e-05,0.0,0 STARLINK-3704,1 51959U 22025D   23015.79995699  .00004314  00000-0  28897-3 0  9993,2 51959  53.2160 146.6815 0002899  40.8052 319.3157 15.08842939 48848,6917.871,95.437,541.742,537.731,0.0
51959.0,STARLINK-3704,PAYLOAD,2023-01-16 01:33:29,15.08838112,0.0003273999999999,53.2166,145.4883,38.3793,321.7431,0.00012771,1.744e-05,0.0,0 STARLINK-3704,1 51959U 22025D   23016.06492655  .00001744  00000-0  12771-3 0  9996,2 51959  53.2166 145.4883 0003274  38.3793 321.7431 15.08838112 48882,6917.886,95.438,542.016,537.486,0.0
51959.0,STARLINK-3704,PAYLOAD,2023-01-16 12:41:11,15.08848084,0.0003141,53.2157,143.4102,43.966,316.1582,0.00012634,1.723e-05,0.0,0 STARLINK-3704,1 51959U 22025D   23016.52860039  .00001723  00000-0  12634-3 0  9997,2 51959  53.2157 143.4102 0003141  43.9660 316.1582 15.08848084 48954,6917.856,95.437,541.894,537.548,0.0
51959.0,STARLINK-3704,PAYLOAD,2023-01-16 15:51:56,15.08855507,0.0003205,53.2162,142.8163,38.3142,321.8078,0.00011138,1.485e-05,0.0,0 STARLINK-3704,1 51959U 22025D   23016.66107345  .00001485  00000-0  11138-3 0  9999,2 51959  53.2162 142.8163 0003205  38.3142 321.8078 15.08855507 48977,6917.8330000000005,95.437,541.915,537.481,0.0
51959.0,STARLINK-3704,PAYLOAD,2023-01-17 14:07:22,15.08832612,0.0002961,53.2177,138.6538,52.8983,307.228,3.7358e-05,3.06e-06,0.0,0 STARLINK-3704,1 51959U 22025D   23017.58845163  .00000306  00000-0  37358-4 0  9992,2 51959  53.2177 138.6538 0002961  52.8983 307.2280 15.08832612 49116,6917.903,95.438,541.816,537.72,0.0
51959.0,STARLINK-3704,PAYLOAD,2023-01-17 15:42:44,15.08839774,0.0002676,53.2153,138.3545,51.524,308.5992,-3.3286999999999995e-05,-8.18e-06,0.0,0 STARLINK-3704,1 51959U 22025D   23017.65468683 -.00000818  00000-0 -33287-4 0  9995,2 51959  53.2153 138.3545 0002676  51.5240 308.5992 15.08839774 48030,6917.880999999999,95.438,541.597,537.895,0.0
51959.0,STARLINK-3704,PAYLOAD,2023-01-18 13:58:08,15.08855655,0.0002617,53.2159,134.192,56.9584,303.1659,0.00026454,3.926e-05,0.0,0 STARLINK-3704,1 51959U 22025D   23018.58204112  .00003926  00000-0  26454-3 0  9991,2 51959  53.2159 134.1920 0002617  56.9584 303.1659 15.08855655 48174,6917.8330000000005,95.437,541.508,537.887,0.0
51959.0,STARLINK-3704,PAYLOAD,2023-01-18 15:33:30,15.08866177,0.0002764,53.2159,133.8943,51.6273,308.4967,0.00038168,5.796e-05,0.0,0 STARLINK-3704,1 51959U 22025D   23018.64827418  .00005796  00000-0  38168-3 0  9990,2 51959  53.2159 133.8943 0002764  51.6273 308.4967 15.08866177 49278,6917.8,95.436,541.577,537.753,0.0
51959.0,STARLINK-3704,PAYLOAD,2023-01-19 07:27:24,15.08826459,0.0002411,53.215,130.9221,58.3997,301.723,1.6915e-05,-1.9e-07,0.0,0 STARLINK-3704,1 51959U 22025D   23019.31069947 -.00000019  00000-0  16915-4 0  9991,2 51959  53.2150 130.9221 0002411  58.3997 301.7230 15.08826459 49371,6917.922,95.438,541.455,538.119,0.0
51959.0,STARLINK-3704,PAYLOAD,2023-01-20 12:04:20,15.08854872,0.000241,53.2163,125.5691,73.6744,286.4513,0.0003908,5.939e-05,0.0,0 STARLINK-3704,1 51959U 22025D   23020.50301045  .00005939  00000-0  39080-3 0  9994,2 51959  53.2163 125.5691 0002410  73.6744 286.4513 15.08854872 49558,6917.835,95.437,541.367,538.033,0.0
51959.0,STARLINK-3704,PAYLOAD,2023-01-20 16:50:29,15.08883898,0.0002387,53.2163,124.675,67.6485,292.476,0.0016577999999999,0.00026227,0.0,0 STARLINK-3704,1 51959U 22025D   23020.70172811  .00026227  00000-0  16578-2 0  9992,2 51959  53.2163 124.6750 0002387  67.6485 292.4760 15.08883898 49586,6917.746,95.435,541.262,537.96,0.0
51959.0,STARLINK-3704,PAYLOAD,2023-01-21 10:19:44,15.08837544,0.0001749,53.217,121.4042,78.9987,281.1202,0.0012889,0.00020283,0.0,0 STARLINK-3704,1 51959U 22025D   23021.43037680  .00020283  00000-0  12889-2 0  9994,2 51959  53.2170 121.4042 0001749  78.9987 281.1202 15.08837544 49691,6917.888000000001,95.438,540.9630000000001,538.543,0.0
51959.0,STARLINK-3704,PAYLOAD,2023-01-22 05:24:22,15.08860144,0.0002405,53.2169,117.8376,72.6981,287.4274,0.0025414,0.00040414,0.0,0 STARLINK-3704,1 51959U 22025D   23022.22525895  .00040414  00000-0  25414-2 0  9998,2 51959  53.2169 117.8376 0002405  72.6981 287.4274 15.08860144 49817,6917.819,95.436,541.3480000000001,538.02,0.0
51959.0,STARLINK-3704,PAYLOAD,2023-01-22 13:21:17,15.08875752,0.0001789,53.216,116.3517,74.7725,285.3465,0.0022264,0.00035358,0.0,0 STARLINK-3704,1 51959U 22025D   23022.55645058  .00035358  00000-0  22264-2 0  9999,2 51959  53.2160 116.3517 0001789  74.7725 285.3465 15.08875752 49867,6917.771,95.435,540.874,538.399,0.0
51959.0,STARLINK-3704,PAYLOAD,2023-01-23 06:50:31,15.0884311,0.0002453,53.2164,113.0807,84.0555,276.0717,-0.00012044,-2.205e-05,0.0,0 STARLINK-3704,1 51959U 22025D   23023.28509142 -.00002205  00000-0 -12044-3 0  9996,2 51959  53.2164 113.0807 0002453  84.0555 276.0717 15.08843110 49973,6917.871,95.437,541.433,538.039,0.0
51959.0,STARLINK-3704,PAYLOAD,2023-01-24 05:05:56,15.08835802,0.0002109,53.2171,108.9197,93.066,267.0573,0.00048784,7.484e-05,0.0,0 STARLINK-3704,1 51959U 22025D   23024.21245794  .00007484  00000-0  48784-3 0  9992,2 51959  53.2171 108.9197 0002109  93.0660 267.0573 15.08835802 50118,6917.893,95.438,541.217,538.299,0.0
51959.0,STARLINK-3704,PAYLOAD,2023-01-25 04:56:43,15.08835789,0.0001492,53.217,104.4595,98.6239,261.4922,0.00024248,3.573e-05,0.0,0 STARLINK-3704,1 51959U 22025D   23025.20606204  .00003573  00000-0  24248-3 0  9993,2 51959  53.2170 104.4595 0001492  98.6239 261.4922 15.08835789 50263,6917.893,95.438,540.79,538.726,0.0
51959.0,STARLINK-3704,PAYLOAD,2023-01-25 11:18:16,15.08840388,0.000137,53.2171,103.269,103.6,256.5145,0.00030403,4.554e-05,0.0,0 STARLINK-3704,1 51959U 22025D   23025.47102170  .00004554  00000-0  30403-3 0  9995,2 51959  53.2171 103.2690 0001370 103.6000 256.5145 15.08840388 49211,6917.879,95.438,540.692,538.7959999999999,0.0
51959.0,STARLINK-3704,PAYLOAD,2023-01-26 11:09:02,15.08855391,0.0001405,53.2156,98.8062,98.1368,261.9783,0.00062285,9.643e-05,0.0,0 STARLINK-3704,1 51959U 22025D   23026.46461706  .00009643  00000-0  62285-3 0  9995,2 51959  53.2156  98.8062 0001405  98.1368 261.9783 15.08855391 49364,6917.8330000000005,95.437,540.67,538.726,0.0
51959.0,STARLINK-3704,PAYLOAD,2023-01-26 22:16:44,15.08855698,0.0001582,53.2156,96.7279,75.6267,284.49,0.00050516,7.764e-05,0.0,0 STARLINK-3704,1 51959U 22025D   23026.92829600  .00007764  00000-0  50516-3 0  9993,2 51959  53.2156  96.7279 0001582  75.6267 284.4900 15.08855698 50526,6917.831999999999,95.437,540.7919999999999,538.6030000000001,0.0
51959.0,STARLINK-3704,PAYLOAD,2023-01-27 12:35:12,15.08848158,0.0001359,53.2159,94.0471,119.5755,240.5373,9.8805e-05,1.285e-05,0.0,0 STARLINK-3704,1 51959U 22025D   23027.52445237  .00001285  00000-0  98805-4 0  9996,2 51959  53.2159  94.0471 0001359 119.5755 240.5373 15.08848158 50616,6917.855,95.437,540.661,538.78,0.0
51959.0,STARLINK-3704,PAYLOAD,2023-01-28 04:29:04,15.08836451,0.0001587,53.2169,91.0693,127.0943,233.0194,1.9691e-05,2.5e-07,0.0,0 STARLINK-3704,1 51959U 22025D   23028.18685741  .00000025  00000-0  19691-4 0  9992,2 51959  53.2169  91.0693 0001587 127.0943 233.0194 15.08836451 50718,6917.891,95.438,540.854,538.658,0.0
